OBJECT_NAME,OBJECT_ID,EPOCH,MEAN_MOTION,ECCENTRICITY,INCLINATION,RA_OF_ASC_NODE,ARG_OF_PERICENTER,MEAN_ANOMALY,EPHEMERIS_TYPE,CLASSIFICATION_TYPE,NORAD_CAT_ID,ELEMENT_SET_NO,REV_AT_EPOCH,BSTAR,MEAN_MOTION_DOT,MEAN_MOTION_DDOT
SL-16 R/B,1994-077B,2026-07-04T12:05:44.813760,14.15577873,.00039293,70.9834,106.7321,311.9865,48.0923,0,U,23405,999,63276,-.45969494E-4,-.138E-5,0
ARIANE 40+ R/B,1995-021B,2026-07-04T11:41:42.509184,14.39843198,.00075081,98.4405,255.3119,144.2121,226.8870,0,U,23561,999,63605,.11288681E-3,.311E-5,0
SL-16 R/B,1995-058B,2026-07-04T14:05:39.153408,14.15509909,.00146357,71.0225,294.8264,296.6752,63.2872,0,U,23705,999,58439,-.97898074E-4,-.239E-5,0
SL-16 R/B,1996-051B,2026-07-04T12:34:13.658016,14.12452433,.00169315,70.7654,287.9593,312.2561,47.7122,0,U,24298,999,53814,.12285628E-3,.178E-5,0
ORBVIEW 2 (SEASTAR),1997-037A,2026-07-03T17:56:44.699712,14.35562371,.00033176,98.8703,352.2268,83.4784,276.6779,0,U,24883,999,52512,.11619703E-3,.288E-5,0
SL-16 R/B,1998-043G,2026-07-04T14:56:55.792608,14.26071626,.00105615,98.8372,139.9328,40.6310,319.5655,0,U,25400,999,45565,.51648142E-4,.78E-6,0
SL-16 R/B,1998-045B,2026-07-04T06:11:59.290368,14.16207563,.00086944,71.0127,296.4278,220.5658,139.4818,0,U,25407,999,44360,.70006074E-4,.91E-6,0
ISS (ZARYA),1998-067A,2026-07-04T11:25:24.159648,15.48889796,.00067442,51.6303,214.5154,255.1217,104.9025,0,U,25544,999,57443,.18498601E-3,.972E-4,0
CZ-4B R/B,1999-025C,2026-07-04T08:12:09.735840,14.18286397,.00372489,98.6475,226.7479,11.0744,359.6843,0,U,25732,999,40470,.45180759E-4,.51E-6,0
OKEAN-O,1999-039A,2026-07-04T10:43:44.484960,14.80488152,.00011189,97.9307,244.0461,72.6188,287.5147,0,U,25860,999,45166,.96887074E-4,.689E-5,0
SL-16 R/B,1999-039B,2026-07-04T10:52:00.993792,14.81862842,.00136024,97.9828,244.2660,235.2982,124.6950,0,U,25861,999,45415,.81058903E-4,.588E-5,0
DELTA 2 R/B,1999-041E,2026-07-04T10:42:22.334112,14.12053936,.05011506,51.7610,194.8471,333.0189,24.5470,0,U,25876,999,37952,.26694889E-3,.1424E-4,0
HELIOS 1B,1999-064A,2026-07-04T04:35:34.101024,14.88053365,.00023663,98.1597,90.8223,68.2201,291.9266,0,U,25977,999,70258,.18568114E-3,.1648E-4,0
TERRA,1999-068A,2026-07-04T15:16:14.751840,14.61118561,.00028735,97.9446,234.4899,143.9918,16.3015,0,U,25994,999,41215,.13521029E-3,.621E-5,0
SL-16 R/B,2000-006B,2026-07-04T12:22:52.754304,14.15841205,.00166766,71.0009,212.1888,355.4998,4.5972,0,U,26070,999,36509,-.6807592E-5,-.61E-6,0
TITAN 4B R/B,2000-047B,2026-07-04T09:53:21.624576,15.10292805,.0045917,67.9886,72.0866,269.5892,89.9996,0,U,26474,999,41053,.20381736E-3,.329E-4,0
ENVISAT,2002-009A,2026-07-04T15:40:32.717280,14.39069197,.00013998,98.3841,136.5827,85.6177,87.1872,0,U,27386,999,27599,.61463167E-4,.147E-5,0
IDEFIX & ARIANE 42P R/B,2002-021B,2026-07-04T12:56:01.461984,14.31090620,.0011226,98.5941,122.8341,198.1494,161.9290,0,U,27422,999,26073,.1380548E-3,.32E-5,0
AQUA,2002-022A,2026-07-04T15:53:51.531072,14.62187266,.00006814,98.4287,155.2954,88.0238,84.8708,0,U,27424,999,28582,.24573754E-3,.1188E-4,0
CZ-4B R/B,2002-024C,2026-07-04T10:02:38.350752,14.14566994,.00509657,98.8690,238.1260,52.2479,318.7788,0,U,27432,999,24574,.47649507E-4,.49E-6,0
MIDORI II (ADEOS-II),2002-056A,2026-07-04T08:36:05.991552,14.29359021,.00018861,98.7886,144.7648,54.1694,305.9662,0,U,27597,999,22696,.13571806E-3,.3E-5,0
H-2A R/B,2002-056E,2026-07-04T14:51:28.486080,14.33830472,.00701952,98.3321,141.6590,172.2528,1.0782,0,U,27601,999,23086,.13385784E-3,.341E-5,0
CZ-4B R/B,2003-049C,2026-07-04T11:46:54.824448,14.55111872,.00470949,98.6902,185.0267,234.4637,125.2163,0,U,28059,999,20358,.11151215E-3,.436E-5,0
CZ-2C R/B,2004-012C,2026-07-04T04:33:03.895488,15.82652238,.0010896,97.7059,262.8747,224.2078,135.8321,0,U,28222,999,22258,.75273855E-3,.160304E-2,0
SL-16 R/B,2004-021B,2026-07-04T04:52:09.992352,14.14611632,.00065955,71.0017,347.9773,234.5798,125.4709,0,U,28353,999,13931,.18154214E-3,.301E-5,0
CZ-4B R/B,2004-035C,2026-07-04T12:30:15.115392,15.30880119,.00288118,97.3357,218.4012,272.8626,86.9318,0,U,28415,999,19777,.44223177E-3,.13295E-3,0
CZ-2C R/B,2004-046B,2026-07-04T12:15:01.844928,14.27030997,.0139512,98.1930,93.2075,168.8775,191.5546,0,U,28480,999,12516,.7677858E-4,.167E-5,0
ARIANE 5 R/B,2004-049H,2026-07-04T10:35:55.886784,14.85469830,.00832438,98.2734,358.3624,333.5049,26.1920,0,U,28499,999,16312,.80133141E-4,.669E-5,0
CZ-2D R/B,2005-024B,2026-07-04T00:58:43.092192,15.71509001,.00004908,97.3477,205.3319,265.6396,94.4811,0,U,28738,999,15798,.60013893E-3,.77114E-3,0
ALOS (DAICHI),2006-002A,2026-07-04T13:59:49.468416,14.70088534,.0000849,98.1330,141.0972,69.4997,290.6300,0,U,28931,999,9065,.26736255E-3,.1557E-4,0
