SL-16 R/B               
1 23405U 94077B   26185.50399090 -.00000138  00000+0 -45969-4 0  9998
2 23405  70.9834 106.7321 0003929 311.9865  48.0923 14.15577873632761
ARIANE 40+ R/B          
1 23561U 95021B   26185.48729756  .00000311  00000+0  11289-3 0  9992
2 23561  98.4405 255.3119 0007508 144.2121 226.8870 14.39843198636053
SL-16 R/B               
1 23705U 95058B   26185.58725872 -.00000239  00000+0 -97898-4 0  9990
2 23705  71.0225 294.8264 0014635 296.6752  63.2872 14.15509909584397
SL-16 R/B               
1 24298U 96051B   26185.52376919  .00000178  00000+0  12286-3 0  9997
2 24298  70.7654 287.9593 0016931 312.2561  47.7122 14.12452433538142
ORBVIEW 2 (SEASTAR)     
1 24883U 97037A   26184.74773958  .00000288  00000+0  11620-3 0  9992
2 24883  98.8703 352.2268 0003317  83.4784 276.6779 14.35562371525124
SL-16 R/B               
1 25400U 98043G   26185.62286797  .00000078  00000+0  51648-4 0  9996
2 25400  98.8372 139.9328 0010561  40.6310 319.5655 14.26071626455656
SL-16 R/B               
1 25407U 98045B   26185.25832512  .00000091  00000+0  70006-4 0  9990
2 25407  71.0127 296.4278 0008694 220.5658 139.4818 14.16207563443607
ISS (ZARYA)             
1 25544U 98067A   26185.47597407  .00009720  00000+0  18499-3 0  9996
2 25544  51.6303 214.5154 0006744 255.1217 104.9025 15.48889796574435
CZ-4B R/B               
1 25732U 99025C   26185.34177935  .00000051  00000+0  45181-4 0  9993
2 25732  98.6475 226.7479 0037248  11.0744 359.6843 14.18286397404700
OKEAN-O                 
1 25860U 99039A   26185.44704265  .00000689  00000+0  96887-4 0  9999
2 25860  97.9307 244.0461 0001118  72.6188 287.5147 14.80488152451669
SL-16 R/B               
1 25861U 99039B   26185.45278928  .00000588  00000+0  81059-4 0  9996
2 25861  97.9828 244.2660 0013602 235.2982 124.6950 14.81862842454154
DELTA 2 R/B             
1 25876U 99041E   26185.44609183  .00001424  00000+0  26695-3 0  9999
2 25876  51.7610 194.8471 0501150 333.0189  24.5470 14.12053936379525
HELIOS 1B               
1 25977U 99064A   26185.19136691  .00001648  00000+0  18568-3 0  9995
2 25977  98.1597  90.8223 0002366  68.2201 291.9266 14.88053365702581
TERRA                   
1 25994U 99068A   26185.63628185  .00000621  00000+0  13521-3 0  9995
2 25994  97.9446 234.4899 0002873 143.9918  16.3015 14.61118561412157
SL-16 R/B               
1 26070U 00006B   26185.51588836 -.00000061  00000+0 -68076-5 0  9997
2 26070  71.0009 212.1888 0016676 355.4998   4.5972 14.15841205365094
TITAN 4B R/B            
1 26474U 00047B   26185.41205584  .00003290  00000+0  20382-3 0  9996
2 26474  67.9886  72.0866 0045917 269.5892  89.9996 15.10292805410531
ENVISAT                 
1 27386U 02009A   26185.65315645  .00000147  00000+0  61463-4 0  9999
2 27386  98.3841 136.5827 0001399  85.6177  87.1872 14.39069197275993
IDEFIX & ARIANE 42P R/B 
1 27422U 02021B   26185.53890581  .00000320  00000+0  13805-3 0  9997
2 27422  98.5941 122.8341 0011226 198.1494 161.9290 14.31090620260736
AQUA                    
1 27424U 02022A   26185.66240198  .00001188  00000+0  24574-3 0  9995
2 27424  98.4287 155.2954 0000681  88.0238  84.8708 14.62187266285827
CZ-4B R/B               
1 27432U 02024C   26185.41849943  .00000049  00000+0  47650-4 0  9998
2 27432  98.8690 238.1260 0050965  52.2479 318.7788 14.14566994245749
MIDORI II (ADEOS-II)    
1 27597U 02056A   26185.35840268  .00000300  00000+0  13572-3 0  9994
2 27597  98.7886 144.7648 0001886  54.1694 305.9662 14.29359021226966
H-2A R/B                
1 27601U 02056E   26185.61907970  .00000341  00000+0  13386-3 0  9991
2 27601  98.3321 141.6590 0070195 172.2528   1.0782 14.33830472230861
CZ-4B R/B               
1 28059U 03049C   26185.49091232  .00000436  00000+0  11151-3 0  9996
2 28059  98.6902 185.0267 0047094 234.4637 125.2163 14.55111872203585
CZ-2C R/B               
1 28222U 04012C   26185.18962842  .00160304  00000+0  75274-3 0  9996
2 28222  97.7059 262.8747 0010896 224.2078 135.8321 15.82652238222584
SL-16 R/B               
1 28353U 04021B   26185.20289343  .00000301  00000+0  18154-3 0  9996
2 28353  71.0017 347.9773 0006595 234.5798 125.4709 14.14611632139316
CZ-4B R/B               
1 28415U 04035C   26185.52100828  .00013295  00000+0  44223-3 0  9997
2 28415  97.3357 218.4012 0028811 272.8626  86.9318 15.30880119197779
CZ-2C R/B               
1 28480U 04046B   26185.51043802  .00000167  00000+0  76779-4 0  9994
2 28480  98.1930  93.2075 0139512 168.8775 191.5546 14.27030997125161
ARIANE 5 R/B            
1 28499U 04049H   26185.44161906  .00000669  00000+0  80133-4 0  9991
2 28499  98.2734 358.3624 0083243 333.5049  26.1920 14.85469830163126
CZ-2D R/B               
1 28738U 05024B   26185.04077653  .00077114  00000+0  60014-3 0  9996
2 28738  97.3477 205.3319 0000490 265.6396  94.4811 15.71509001157986
ALOS (DAICHI)           
1 28931U 06002A   26185.58321144  .00001557  00000+0  26736-3 0  9995
2 28931  98.1330 141.0972 0000849  69.4997 290.6300 14.70088534 90658
